{
  "type": "FeatureCollection",
  "features": [
    {
      "type": "Feature",
      "properties": {
        "norad_id": 27954,
        "name": "GALAXY 13 (HORIZONS-1)",
        "group": "intelsat",
        "lat": -0.42210341346862235,
        "lon": 59.35410941412801,
        "alt_km": 35794.80701800615,
        "timestamp": "2025-12-24T07:45:05.866218+00:00",
        "meta_object_name": "GALAXY 13 (HORIZONS-1)",
        "meta_object_id": "2003-044A",
        "meta_epoch": "2025-12-23T17:33:18.870624",
        "meta_mean_motion": 1.0027125,
        "meta_eccentricity": 0.00023412,
        "meta_inclination": 0.9652,
        "meta_ra_of_asc_node": 86.3258,
        "meta_arg_of_pericenter": 182.915,
        "meta_mean_anomaly": 296.5742,
        "meta_ephemeris_type": 0,
        "meta_classification_type": "U",
        "meta_norad_cat_id": 27954,
        "meta_element_set_no": 999,
        "meta_rev_at_epoch": 4481,
        "meta_bstar": 0,
        "meta_mean_motion_dot": 1.53e-06,
        "meta_mean_motion_ddot": 0,
        "tle_line1": "1 27954U 03044A   25357.73146841  .00000153  00000+0  00000+0 0  9991",
        "tle_line2": "2 27954   0.9652  86.3258 0002341 182.9150 296.5742  1.00271250 44819"
      },
      "geometry": {
        "type": "Point",
        "coordinates": [
          59.35410941412801,
          -0.42210341346862235
        ]
      }
    },
    {
      "type": "Feature",
      "properties": {
        "norad_id": 28358,
        "name": "INTELSAT 10-02",
        "group": "intelsat",
        "lat": 0.0033191961505396215,
        "lon": -151.5996708090738,
        "alt_km": 35786.63456637945,
        "timestamp": "2025-12-24T07:45:05.866243+00:00",
        "meta_object_name": "INTELSAT 10-02",
        "meta_object_id": "2004-022A",
        "meta_epoch": "2025-12-23T21:41:17.772288",
        "meta_mean_motion": 1.00271585,
        "meta_eccentricity": 0.00010515,
        "meta_inclination": 0.0155,
        "meta_ra_of_asc_node": 49.0118,
        "meta_arg_of_pericenter": 256.2351,
        "meta_mean_anomaly": 111.8084,
        "meta_ephemeris_type": 0,
        "meta_classification_type": "U",
        "meta_norad_cat_id": 28358,
        "meta_element_set_no": 999,
        "meta_rev_at_epoch": 7879,
        "meta_bstar": 0,
        "meta_mean_motion_dot": 1e-07,
        "meta_mean_motion_ddot": 0,
        "tle_line1": "1 28358U 04022A   25357.90367792  .00000010  00000+0  00000+0 0  9998",
        "tle_line2": "2 28358   0.0155  49.0118 0001051 256.2351 111.8084  1.00271585 78796"
      },
      "geometry": {
        "type": "Point",
        "coordinates": [
          -151.5996708090738,
          0.0033191961505396215
        ]
      }
    },
    {
      "type": "Feature",
      "properties": {
        "norad_id": 28626,
        "name": "XM-3 (RHYTHM)",
        "group": "intelsat",
        "lat": -0.04408056611070807,
        "lon": -91.42737274510792,
        "alt_km": 36160.54496432831,
        "timestamp": "2025-12-24T07:45:05.866262+00:00",
        "meta_object_name": "XM-3 (RHYTHM)",
        "meta_object_id": "2005-008A",
        "meta_epoch": "2025-12-23T21:59:01.074624",
        "meta_mean_motion": 0.98949978,
        "meta_eccentricity": 0.00021108,
        "meta_inclination": 0.2018,
        "meta_ra_of_asc_node": 82.1578,
        "meta_arg_of_pericenter": 275.2697,
        "meta_mean_anomaly": 126.1912,
        "meta_ephemeris_type": 0,
        "meta_classification_type": "U",
        "meta_norad_cat_id": 28626,
        "meta_element_set_no": 999,
        "meta_rev_at_epoch": 4086,
        "meta_bstar": 0,
        "meta_mean_motion_dot": 9.9e-07,
        "meta_mean_motion_ddot": 0,
        "tle_line1": "1 28626U 05008A   25357.91598466  .00000099  00000+0  00000+0 0  9993",
        "tle_line2": "2 28626   0.2018  82.1578 0002110 275.2697 126.1912  0.98949978 40863"
      },
      "geometry": {
        "type": "Point",
        "coordinates": [
          -91.42737274510792,
          -0.04408056611070807
        ]
      }
    },
    {
      "type": "Feature",
      "properties": {
        "norad_id": 28659,
        "name": "DIRECTV 8",
        "group": "intelsat",
        "lat": 0.03866069175560944,
        "lon": 90.3333509339169,
        "alt_km": 35798.456925861086,
        "timestamp": "2025-12-24T07:45:05.866274+00:00",
        "meta_object_name": "DIRECTV 8",
        "meta_object_id": "2005-019A",
        "meta_epoch": "2025-12-23T17:41:55.546944",
        "meta_mean_motion": 1.00271595,
        "meta_eccentricity": 0.00029818,
        "meta_inclination": 0.018,
        "meta_ra_of_asc_node": 23.2581,
        "meta_arg_of_pericenter": 259.0434,
        "meta_mean_anomaly": 316.6613,
        "meta_ephemeris_type": 0,
        "meta_classification_type": "U",
        "meta_norad_cat_id": 28659,
        "meta_element_set_no": 999,
        "meta_rev_at_epoch": 7531,
        "meta_bstar": 0,
        "meta_mean_motion_dot": 2.2e-07,
        "meta_mean_motion_ddot": 0,
        "tle_line1": "1 28659U 05019A   25357.73744846  .00000022  00000+0  00000+0 0  9992",
        "tle_line2": "2 28659   0.0180  23.2581 0002981 259.0434 316.6613  1.00271595 75311"
      },
      "geometry": {
        "type": "Point",
        "coordinates": [
          90.3333509339169,
          0.03866069175560944
        ]
      }
    },
    {
      "type": "Feature",
      "properties": {
        "norad_id": 28702,
        "name": "GALAXY 28 (G-28)",
        "group": "intelsat",
        "lat": 1.8339816652756207,
        "lon": 120.6223486467288,
        "alt_km": 35797.536749841325,
        "timestamp": "2025-12-24T07:45:05.866286+00:00",
        "meta_object_name": "GALAXY 28 (G-28)",
        "meta_object_id": "2005-022A",
        "meta_epoch": "2025-12-20T00:49:30.482112",
        "meta_mean_motion": 1.00271047,
        "meta_eccentricity": 0.00029384,
        "meta_inclination": 2.8382,
        "meta_ra_of_asc_node": 81.1982,
        "meta_arg_of_pericenter": 194.0723,
        "meta_mean_anomaly": 97.2981,
        "meta_ephemeris_type": 0,
        "meta_classification_type": "U",
        "meta_norad_cat_id": 28702,
        "meta_element_set_no": 999,
        "meta_rev_at_epoch": 5017,
        "meta_bstar": 0,
        "meta_mean_motion_dot": -1.65e-06,
        "meta_mean_motion_ddot": 0,
        "tle_line1": "1 28702U 05022A   25354.03438058 -.00000165  00000+0  00000+0 0  9999",
        "tle_line2": "2 28702   2.8382  81.1982 0002938 194.0723  97.2981  1.00271047 50172"
      },
      "geometry": {
        "type": "Point",
        "coordinates": [
          120.6223486467288,
          1.8339816652756207
        ]
      }
    },
    {
      "type": "Feature",
      "properties": {
        "norad_id": 29236,
        "name": "GALAXY 16 (G-16)",
        "group": "intelsat",
        "lat": 0.008419945588893146,
        "lon": 110.34642957855351,
        "alt_km": 35796.38229168843,
        "timestamp": "2025-12-24T07:45:05.866298+00:00",
        "meta_object_name": "GALAXY 16 (G-16)",
        "meta_object_id": "2006-023A",
        "meta_epoch": "2025-12-23T16:05:04.821216",
        "meta_mean_motion": 1.00271325,
        "meta_eccentricity": 0.00025095,
        "meta_inclination": 0.0451,
        "meta_ra_of_asc_node": 194.2073,
        "meta_arg_of_pericenter": 78.9639,
        "meta_mean_anomaly": 321.5434,
        "meta_ephemeris_type": 0,
        "meta_classification_type": "U",
        "meta_norad_cat_id": 29236,
        "meta_element_set_no": 999,
        "meta_rev_at_epoch": 7121,
        "meta_bstar": 0,
        "meta_mean_motion_dot": -1.06e-06,
        "meta_mean_motion_ddot": 0,
        "tle_line1": "1 29236U 06023A   25357.67019469 -.00000106  00000+0  00000+0 0  9993",
        "tle_line2": "2 29236   0.0451 194.2073 0002509  78.9639 321.5434  1.00271325 71212"
      },
      "geometry": {
        "type": "Point",
        "coordinates": [
          110.34642957855351,
          0.008419945588893146
        ]
      }
    },
    {
      "type": "Feature",
      "properties": {
        "norad_id": 29494,
        "name": "DIRECTV 9S",
        "group": "intelsat",
        "lat": 0.8561298026681804,
        "lon": 108.14545831829537,
        "alt_km": 35798.10817825627,
        "timestamp": "2025-12-24T07:45:05.866311+00:00",
        "meta_object_name": "DIRECTV 9S",
        "meta_object_id": "2006-043A",
        "meta_epoch": "2025-12-23T16:04:27.379776",
        "meta_mean_motion": 1.00272016,
        "meta_eccentricity": 0.00029275,
        "meta_inclination": 1.9666,
        "meta_ra_of_asc_node": 83.0964,
        "meta_arg_of_pericenter": 194.5447,
        "meta_mean_anomaly": 314.724,
        "meta_ephemeris_type": 0,
        "meta_classification_type": "U",
        "meta_norad_cat_id": 29494,
        "meta_element_set_no": 999,
        "meta_rev_at_epoch": 4962,
        "meta_bstar": 0,
        "meta_mean_motion_dot": -9.3e-07,
        "meta_mean_motion_ddot": 0,
        "tle_line1": "1 29494U 06043A   25357.66976134 -.00000093  00000+0  00000+0 0  9996",
        "tle_line2": "2 29494   1.9666  83.0964 0002927 194.5447 314.7240  1.00272016 49623"
      },
      "geometry": {
        "type": "Point",
        "coordinates": [
          108.14545831829537,
          0.8561298026681804
        ]
      }
    }
  ]
}